{"type":"FeatureCollection","features":[{"type":"Feature","properties":{"OBJL":"DEPARE","DRVAL1":5,"DRVAL2":20},"geometry":{"type":"Polygon","coordinates":[[[-44.2990723,-23.0830000],[-44.2990803,-23.0828886],[-44.2991039,-23.0827791],[-44.2991429,-23.0826734],[-44.2991966,-23.0825733],[-44.2992640,-23.0824805],[-44.2993440,-23.0823966],[-44.2994353,-23.0823230],[-44.2995362,-23.0822609],[-44.2996450,-23.0822116],[-44.2997599,-23.0821757],[-44.2998789,-23.0821539],[-44.3000000,-23.0821466],[-44.3001211,-23.0821539],[-44.3002401,-23.0821757],[-44.3003550,-23.0822116],[-44.3004638,-23.0822609],[-44.3005647,-23.0823230],[-44.3006560,-23.0823966],[-44.3007360,-23.0824805],[-44.3008034,-23.0825733],[-44.3008571,-23.0826734],[-44.3008961,-23.0827791],[-44.3009197,-23.0828886],[-44.3009277,-23.0830000],[-44.3009197,-23.0831114],[-44.3008961,-23.0832209],[-44.3008571,-23.0833266],[-44.3008034,-23.0834267],[-44.3007360,-23.0835195],[-44.3006560,-23.0836034],[-44.3005647,-23.0836770],[-44.3004638,-23.0837391],[-44.3003550,-23.0837884],[-44.3002401,-23.0838243],[-44.3001211,-23.0838461],[-44.3000000,-23.0838534],[-44.2998789,-23.0838461],[-44.2997599,-23.0838243],[-44.2996450,-23.0837884],[-44.2995362,-23.0837391],[-44.2994353,-23.0836770],[-44.2993440,-23.0836034],[-44.2992640,-23.0835195],[-44.2991966,-23.0834267],[-44.2991429,-23.0833266],[-44.2991039,-23.0832209],[-44.2990803,-23.0831114],[-44.2990723,-23.0830000]]]}},{"type":"Feature","properties":{"OBJL":"DEPARE","DRVAL1":0,"DRVAL2":5},"geometry":{"type":"Polygon","coordinates":[[[-44.2995419,-23.0830000],[-44.2995393,-23.0829442],[-44.2995486,-23.0828887],[-44.2995699,-23.0828361],[-44.2996026,-23.0827889],[-44.2996455,-23.0827498],[-44.2996947,-23.0827192],[-44.2997465,-23.0826961],[-44.2997981,-23.0826783],[-44.2998485,-23.0826635],[-44.2998982,-23.0826506],[-44.2999486,-23.0826410],[-44.3000000,-23.0826379],[-44.3000511,-23.0826433],[-44.3001002,-23.0826561],[-44.3001471,-23.0826733],[-44.3001933,-23.0826921],[-44.3002414,-23.0827106],[-44.3002923,-23.0827311],[-44.3003439,-23.0827572],[-44.3003932,-23.0827912],[-44.3004365,-23.0828337],[-44.3004705,-23.0828840],[-44.3004933,-23.0829403],[-44.3005049,-23.0830000],[-44.3005033,-23.0830610],[-44.3004878,-23.0831202],[-44.3004614,-23.0831758],[-44.3004272,-23.0832269],[-44.3003873,-23.0832734],[-44.3003424,-23.0833150],[-44.3002931,-23.0833514],[-44.3002405,-23.0833832],[-44.3001852,-23.0834113],[-44.3001270,-23.0834361],[-44.3000651,-23.0834550],[-44.3000000,-23.0834642],[-44.2999339,-23.0834621],[-44.2998699,-23.0834465],[-44.2998119,-23.0834177],[-44.2997625,-23.0833784],[-44.2997223,-23.0833329],[-44.2996897,-23.0832855],[-44.2996621,-23.0832385],[-44.2996372,-23.0831927],[-44.2996111,-23.0831482],[-44.2995830,-23.0831028],[-44.2995576,-23.0830536],[-44.2995419,-23.0830000]]]}},{"type":"Feature","properties":{"OBJL":"LNDARE"},"geometry":{"type":"Polygon","coordinates":[[[-44.2997342,-23.0830000],[-44.2997249,-23.0829667],[-44.2997220,-23.0829315],[-44.2997281,-23.0828964],[-44.2997435,-23.0828638],[-44.2997666,-23.0828353],[-44.2997952,-23.0828116],[-44.2998275,-23.0827932],[-44.2998616,-23.0827794],[-44.2998961,-23.0827694],[-44.2999308,-23.0827624],[-44.2999655,-23.0827586],[-44.3000000,-23.0827590],[-44.3000338,-23.0827640],[-44.3000659,-23.0827737],[-44.3000956,-23.0827878],[-44.3001226,-23.0828047],[-44.3001488,-23.0828216],[-44.3001759,-23.0828382],[-44.3002044,-23.0828557],[-44.3002331,-23.0828762],[-44.3002587,-23.0829014],[-44.3002769,-23.0829317],[-44.3002854,-23.0829654],[-44.3002861,-23.0830000],[-44.3002810,-23.0830340],[-44.3002721,-23.0830671],[-44.3002616,-23.0830997],[-44.3002489,-23.0831322],[-44.3002316,-23.0831635],[-44.3002085,-23.0831918],[-44.3001804,-23.0832162],[-44.3001490,-23.0832374],[-44.3001154,-23.0832564],[-44.3000797,-23.0832736],[-44.3000411,-23.0832871],[-44.3000000,-23.0832938],[-44.2999584,-23.0832906],[-44.2999195,-23.0832764],[-44.2998862,-23.0832528],[-44.2998598,-23.0832234],[-44.2998396,-23.0831924],[-44.2998236,-23.0831623],[-44.2998104,-23.0831339],[-44.2997986,-23.0831070],[-44.2997852,-23.0830819],[-44.2997681,-23.0830572],[-44.2997495,-23.0830303],[-44.2997342,-23.0830000]]]}},{"type":"Feature","properties":{"OBJL":"UWTROC","nome":"Rochedo_35"},"geometry":{"type":"Point","coordinates":[-44.2996943,-23.0828031]}},{"type":"Feature","properties":{"OBJL":"UWTROC","nome":"Rochedo_110"},"geometry":{"type":"Point","coordinates":[-44.3001088,-23.0827249]}},{"type":"Feature","properties":{"OBJL":"UWTROC","nome":"Rochedo_200"},"geometry":{"type":"Point","coordinates":[-44.3003682,-23.0831233]}},{"type":"Feature","properties":{"OBJL":"UWTROC","nome":"Rochedo_260"},"geometry":{"type":"Point","coordinates":[-44.3000702,-23.0833664]}},{"type":"Feature","properties":{"OBJL":"BOYSHP","nome":"Boia_Bombordo"},"geometry":{"type":"Point","coordinates":[-44.3005025,-23.0829185]}},{"type":"Feature","properties":{"OBJL":"BOYSHP","nome":"Boia_Boreste"},"geometry":{"type":"Point","coordinates":[-44.3005025,-23.0830815]}}]}